{"type": "FeatureCollection", "features": [ {"type": "Feature", "properties": {"norad_id": 38953, "name": "BEIDOU-2 G6 (C02)", "group": "beidou", "lat": 1.932755356219066, "lon": 104.21839776613767, "alt_km": 35790.77738045173, "timestamp": "2025-12-17T19:34:08.303658+00:00", "meta": {"OBJECT_NAME": "BEIDOU-2 G6 (C02)", "OBJECT_ID": "2012-059A", "EPOCH": "2025-12-16T20:36:20.086848", "MEAN_MOTION": 1.00269484, "ECCENTRICITY": 0.00080985, "INCLINATION": 3.9596, "RA_OF_ASC_NODE": 75.466, "ARG_OF_PERICENTER": 291.412, "MEAN_ANOMALY": 111.9285, "EPHEMERIS_TYPE": 0, "CLASSIFICATION_TYPE": "U", "NORAD_CAT_ID": 38953, "ELEMENT_SET_NO": 999, "REV_AT_EPOCH": 4808, "BSTAR": 0, "MEAN_MOTION_DOT": -1.53e-06, "MEAN_MOTION_DDOT": 0}, "tle": {"line1": "1 38953U 12059A   25350.85856582 -.00000153  00000+0  00000+0 0  9995", "line2": "2 38953   3.9596  75.4660 0008098 291.4120 111.9285  1.00269484 48085"}}, "geometry": {"type": "Point", "coordinates": [104.21839776613767, 1.932755356219066]}}, {"type": "Feature", "properties": {"norad_id": 40549, "name": "BEIDOU-3S IGSO-1S (C31)", "group": "beidou", "lat": 2.3885068556810873, "lon": 115.56895834012789, "alt_km": 35634.105800665115, "timestamp": "2025-12-17T19:34:08.303669+00:00", "meta": {"OBJECT_NAME": "BEIDOU-3S IGSO-1S (C31)", "OBJECT_ID": "2015-019A", "EPOCH": "2025-12-16T22:00:09.125856", "MEAN_MOTION": 1.00292577, "ECCENTRICITY": 0.00363578, "INCLINATION": 49.5427, "RA_OF_ASC_NODE": 297.6612, "ARG_OF_PERICENTER": 193.8033, "MEAN_ANOMALY": 18.6613, "EPHEMERIS_TYPE": 0, "CLASSIFICATION_TYPE": "U", "NORAD_CAT_ID": 40549, "ELEMENT_SET_NO": 999, "REV_AT_EPOCH": 3924, "BSTAR": 0, "MEAN_MOTION_DOT": -1.91e-06, "MEAN_MOTION_DDOT": 0}, "tle": {"line1": "1 40549U 15019A   25350.91677229 -.00000191  00000+0  00000+0 0  9996", "line2": "2 40549  49.5427 297.6612 0036357 193.8033  18.6613  1.00292577 39245"}}, "geometry": {"type": "Point", "coordinates": [115.56895834012789, 2.3885068556810873]}}, {"type": "Feature", "properties": {"norad_id": 40748, "name": "BEIDOU-3S M2S (C58)", "group": "beidou", "lat": -10.172738410916999, "lon": -58.942121179162605, "alt_km": 21523.522807381978, "timestamp": "2025-12-17T19:34:08.303681+00:00", "meta": {"OBJECT_NAME": "BEIDOU-3S M2S (C58)", "OBJECT_ID": "2015-037A", "EPOCH": "2025-12-11T22:15:26.437248", "MEAN_MOTION": 1.8622897, "ECCENTRICITY": 0.00123447, "INCLINATION": 55.0397, "RA_OF_ASC_NODE": 308.4912, "ARG_OF_PERICENTER": 267.8245, "MEAN_ANOMALY": 92.025, "EPHEMERIS_TYPE": 0, "CLASSIFICATION_TYPE": "U", "NORAD_CAT_ID": 40748, "ELEMENT_SET_NO": 999, "REV_AT_EPOCH": 7063, "BSTAR": 0, "MEAN_MOTION_DOT": -8.9e-07, "MEAN_MOTION_DDOT": 0}, "tle": {"line1": "1 40748U 15037A   25345.92738932 -.00000089  00000+0  00000+0 0  9997", "line2": "2 40748  55.0397 308.4912 0012344 267.8245  92.0250  1.86228970 70636"}}, "geometry": {"type": "Point", "coordinates": [-58.942121179162605, -10.172738410916999]}}, {"type": "Feature", "properties": {"norad_id": 40749, "name": "BEIDOU-3S M1S (C57)", "group": "beidou", "lat": -11.212011832348162, "lon": 136.22333490466255, "alt_km": 21536.708434877622, "timestamp": "2025-12-17T19:34:08.303692+00:00", "meta": {"OBJECT_NAME": "BEIDOU-3S M1S (C57)", "OBJECT_ID": "2015-037B", "EPOCH": "2025-12-11T14:53:54.000096", "MEAN_MOTION": 1.86253918, "ECCENTRICITY": 0.00034406, "INCLINATION": 55.0364, "RA_OF_ASC_NODE": 308.4915, "ARG_OF_PERICENTER": 358.1692, "MEAN_ANOMALY": 1.8205, "EPHEMERIS_TYPE": 0, "CLASSIFICATION_TYPE": "U", "NORAD_CAT_ID": 40749, "ELEMENT_SET_NO": 999, "REV_AT_EPOCH": 7063, "BSTAR": 0, "MEAN_MOTION_DOT": -8.8e-07, "MEAN_MOTION_DDOT": 0}, "tle": {"line1": "1 40749U 15037B   25345.62076389 -.00000088  00000+0  00000+0 0  9995", "line2": "2 40749  55.0364 308.4915 0003440 358.1692   1.8205  1.86253918 70639"}}, "geometry": {"type": "Point", "coordinates": [136.22333490466255, -11.212011832348162]}}, {"type": "Feature", "properties": {"norad_id": 40938, "name": "BEIDOU-3S IGSO-2S (C56)", "group": "beidou", "lat": -26.208517404703922, "lon": 105.75022079547755, "alt_km": 35561.79317312492, "timestamp": "2025-12-17T19:34:08.303703+00:00", "meta": {"OBJECT_NAME": "BEIDOU-3S IGSO-2S (C56)", "OBJECT_ID": "2015-053A", "EPOCH": "2025-12-16T17:14:16.267776", "MEAN_MOTION": 1.00269476, "ECCENTRICITY": 0.00605277, "INCLINATION": 49.5044, "RA_OF_ASC_NODE": 260.9581, "ARG_OF_PERICENTER": 188.7289, "MEAN_ANOMALY": 350.4326, "EPHEMERIS_TYPE": 0, "CLASSIFICATION_TYPE": "U", "NORAD_CAT_ID": 40938, "ELEMENT_SET_NO": 999, "REV_AT_EPOCH": 3752, "BSTAR": 0, "MEAN_MOTION_DOT": -1.34e-06, "MEAN_MOTION_DDOT": 0}, "tle": {"line1": "1 40938U 15053A   25350.71824384 -.00000134  00000+0  00000+0 0  9997", "line2": "2 40938  49.5044 260.9581 0060527 188.7289 350.4326  1.00269476 37521"}}, "geometry": {"type": "Point", "coordinates": [105.75022079547755, -26.208517404703922]}}, {"type": "Feature", "properties": {"norad_id": 41434, "name": "BEIDOU-2 IGSO-6 (C13)", "group": "beidou", "lat": 56.02354718737249, "lon": 98.88651814947647, "alt_km": 36011.32142737811, "timestamp": "2025-12-17T19:34:08.303720+00:00", "meta": {"OBJECT_NAME": "BEIDOU-2 IGSO-6 (C13)", "OBJECT_ID": "2016-021A", "EPOCH": "2025-12-11T15:29:12.615360", "MEAN_MOTION": 1.00293077, "ECCENTRICITY": 0.00608616, "INCLINATION": 59.9644, "RA_OF_ASC_NODE": 39.9082, "ARG_OF_PERICENTER": 229.9753, "MEAN_ANOMALY": 135.9177, "EPHEMERIS_TYPE": 0, "CLASSIFICATION_TYPE": "U", "NORAD_CAT_ID": 41434, "ELEMENT_SET_NO": 999, "REV_AT_EPOCH": 3560, "BSTAR": 0, "MEAN_MOTION_DOT": -1.62e-06, "MEAN_MOTION_DDOT": 0}, "tle": {"line1": "1 41434U 16021A   25345.64528490 -.00000162  00000+0  00000+0 0  9991", "line2": "2 41434  59.9644  39.9082 0060861 229.9753 135.9177  1.00293077 35600"}}, "geometry": {"type": "Point", "coordinates": [98.88651814947647, 56.02354718737249]}}, {"type": "Feature", "properties": {"norad_id": 41586, "name": "BEIDOU-2 G7 (C03)", "group": "beidou", "lat": 1.5900503911798034, "lon": 130.70049448552192, "alt_km": 35774.63702360717, "timestamp": "2025-12-17T19:34:08.303732+00:00", "meta": {"OBJECT_NAME": "BEIDOU-2 G7 (C03)", "OBJECT_ID": "2016-037A", "EPOCH": "2025-12-17T07:00:07.338240", "MEAN_MOTION": 1.00273126, "ECCENTRICITY": 0.00050563, "INCLINATION": 1.768, "RA_OF_ASC_NODE": 67.8201, "ARG_OF_PERICENTER": 3.4641, "MEAN_ANOMALY": 230.3643, "EPHEMERIS_TYPE": 0, "CLASSIFICATION_TYPE": "U", "NORAD_CAT_ID": 41586, "ELEMENT_SET_NO": 999, "REV_AT_EPOCH": 506, "BSTAR": 0, "MEAN_MOTION_DOT": -3.3e-06, "MEAN_MOTION_DDOT": 0}, "tle": {"line1": "1 41586U 16037A   25351.29175160 -.00000330  00000+0  00000+0 0  9993", "line2": "2 41586   1.7680  67.8201 0005056   3.4641 230.3643  1.00273126  5060"}}, "geometry": {"type": "Point", "coordinates": [130.70049448552192, 1.5900503911798034]}}, {"type": "Feature", "properties": {"norad_id": 43001, "name": "BEIDOU-3 M1 (C19)", "group": "beidou", "lat": 48.546512939663096, "lon": -159.3196980851062, "alt_km": 21548.26280068814, "timestamp": "2025-12-17T19:34:08.303744+00:00", "meta": {"OBJECT_NAME": "BEIDOU-3 M1 (C19)", "OBJECT_ID": "2017-069A", "EPOCH": "2025-12-17T02:31:31.300896", "MEAN_MOTION": 1.86231373, "ECCENTRICITY": 0.00093891, "INCLINATION": 56.5309, "RA_OF_ASC_NODE": 69.0894, "ARG_OF_PERICENTER": 302.653, "MEAN_ANOMALY": 57.2803, "EPHEMERIS_TYPE": 0, "CLASSIFICATION_TYPE": "U", "NORAD_CAT_ID": 43001, "ELEMENT_SET_NO": 999, "REV_AT_EPOCH": 5521, "BSTAR": 0, "MEAN_MOTION_DOT": -7.5e-07, "MEAN_MOTION_DDOT": 0}, "tle": {"line1": "1 43001U 17069A   25351.10522339 -.00000075  00000+0  00000+0 0  9993", "line2": "2 43001  56.5309  69.0894 0009389 302.6530  57.2803  1.86231373 55214"}}, "geometry": {"type": "Point", "coordinates": [-159.3196980851062, 48.546512939663096]}}, {"type": "Feature", "properties": {"norad_id": 43002, "name": "BEIDOU-3 M2 (C20)", "group": "beidou", "lat": 18.672166069883257, "lon": -123.78337681987507, "alt_km": 21543.762749096168, "timestamp": "2025-12-17T19:34:08.303755+00:00", "meta": {"OBJECT_NAME": "BEIDOU-3 M2 (C20)", "OBJECT_ID": "2017-069B", "EPOCH": "2025-12-17T01:02:46.646016", "MEAN_MOTION": 1.86230935, "ECCENTRICITY": 0.00064468, "INCLINATION": 56.5305, "RA_OF_ASC_NODE": 69.1275, "ARG_OF_PERICENTER": 330.7848, "MEAN_ANOMALY": 29.2027, "EPHEMERIS_TYPE": 0, "CLASSIFICATION_TYPE": "U", "NORAD_CAT_ID": 43002, "ELEMENT_SET_NO": 999, "REV_AT_EPOCH": 5520, "BSTAR": 0, "MEAN_MOTION_DOT": -7.5e-07, "MEAN_MOTION_DDOT": 0}, "tle": {"line1": "1 43002U 17069B   25351.04359544 -.00000075  00000+0  00000+0 0  9993", "line2": "2 43002  56.5305  69.1275 0006446 330.7848  29.2027  1.86230935 55209"}}, "geometry": {"type": "Point", "coordinates": [-123.78337681987507, 18.672166069883257]}}, {"type": "Feature", "properties": {"norad_id": 43107, "name": "BEIDOU-3 M7 (C27)", "group": "beidou", "lat": -24.197583125680033, "lon": -70.08437681088019, "alt_km": 21532.50605095254, "timestamp": "2025-12-17T19:34:08.303767+00:00", "meta": {"OBJECT_NAME": "BEIDOU-3 M7 (C27)", "OBJECT_ID": "2018-003A", "EPOCH": "2025-12-13T13:33:25.741728", "MEAN_MOTION": 1.86232202, "ECCENTRICITY": 0.00026561, "INCLINATION": 54.4958, "RA_OF_ASC_NODE": 308.7854, "ARG_OF_PERICENTER": 70.3198, "MEAN_ANOMALY": 289.6984, "EPHEMERIS_TYPE": 0, "CLASSIFICATION_TYPE": "U", "NORAD_CAT_ID": 43107, "ELEMENT_SET_NO": 999, "REV_AT_EPOCH": 5389, "BSTAR": 0, "MEAN_MOTION_DOT": -9.8e-07, "MEAN_MOTION_DDOT": 0}, "tle": {"line1": "1 43107U 18003A   25347.56488127 -.00000098  00000+0  00000+0 0  9995", "line2": "2 43107  54.4958 308.7854 0002656  70.3198 289.6984  1.86232202 53891"}}, "geometry": {"type": "Point", "coordinates": [-70.08437681088019, -24.197583125680033]}}]}